{"type":"FeatureCollection","source":"UC 2026.kmz / CASILLAS","features":[{"type":"Feature","properties":{"id":"938-1","seccion":"938","ubicacion_numero":1,"domicilio":"CALLE NORTE 16, SIN NÚMERO, COLONIA UNIÓN DE GUADALUPE, CHALCO DE DÍAZ COVARRUBIAS, CÓDIGO POSTAL 56606, CHALCO, MÉXICO","ubicacion":"ESCUELA JARDÍN DE NIÑOS DONATO GUERRA","referencia":"ENTRE CALLE ORIENTE 29 Y CALLE ORIENTE 31","tipo_domicilio":"ESCUELA","numero_casillas":1,"ubicaciones_seccion":1},"geometry":{"type":"Point","coordinates":[-98.91429399999998,19.287419]}},{"type":"Feature","properties":{"id":"966-1","seccion":"966","ubicacion_numero":1,"domicilio":"AVENIDA PASCUAL ORTIZ RUBIO, SIN NÚMERO, COLONIA UNIÓN DE GUADALUPE, CHALCO DE DÍAZ COVARRUBIAS, CÓDIGO POSTAL 56606, CHALCO, MÉXICO","ubicacion":"ESCUELA TELESECUNDARIA OFICIAL NÚMERO 0286 SOR JUANA INÉS DE LA CRUZ","referencia":"ESQUINA CALLE NORTE 15","tipo_domicilio":"ESCUELA","numero_casillas":1,"ubicaciones_seccion":1},"geometry":{"type":"Point","coordinates":[-98.91098,19.285791]}},{"type":"Feature","properties":{"id":"967-1","seccion":"967","ubicacion_numero":1,"domicilio":"CALLE NORTE 13, SIN NÚMERO, COLONIA UNIÓN DE GUADALUPE, CHALCO DE DÍAZ COVARRUBIAS, CÓDIGO POSTAL 56606, CHALCO, MÉXICO","ubicacion":"ESCUELA SECUNDARIA TÉCNICA INDUSTRIAL JUANA DE ASBAJE","referencia":"ENTRE CALLE RUIZ CORTINES Y AVENIDA MANUEL ÁVILA CAMACHO","tipo_domicilio":"ESCUELA","numero_casillas":1,"ubicaciones_seccion":1},"geometry":{"type":"Point","coordinates":[-98.910134,19.283221]}},{"type":"Feature","properties":{"id":"986-1","seccion":"986","ubicacion_numero":1,"domicilio":"AVENIDA ORIENTE 50, NÚMERO 653, COLONIA UNIÓN DE GUADALUPE, CHALCO DE DÍAZ COVARRUBIAS, CÓDIGO POSTAL 56606, CHALCO, MÉXICO","ubicacion":"ESCUELA JARDÍN DE NIÑOS CUAUHTÉMOC II","referencia":"ENTRE CALLE NORTE 13 Y CALLE NORTE 11","tipo_domicilio":"ESCUELA","numero_casillas":1,"ubicaciones_seccion":1},"geometry":{"type":"Point","coordinates":[-98.906355,19.281937]}},{"type":"Feature","properties":{"id":"987-1","seccion":"987","ubicacion_numero":1,"domicilio":"CALLE NORTE 10, SIN NÚMERO, COLONIA UNIÓN DE GUADALUPE, CHALCO DE DÍAZ COVARRUBIAS, CÓDIGO POSTAL 56606, CHALCO, MÉXICO","ubicacion":"CANCHA DE BÁSQUETBOL","referencia":"ENTRE CALLE ORIENTE 57 Y CALLE ORIENTE 58","tipo_domicilio":"LUGAR PÚBLICO","numero_casillas":1,"ubicaciones_seccion":1},"geometry":{"type":"Point","coordinates":[-98.904427,19.278804]}},{"type":"Feature","properties":{"id":"989-1","seccion":"989","ubicacion_numero":1,"domicilio":"CALLE VILLAHERMOSA, SIN NÚMERO, COLONIA LA BOMBA, CHALCO DE DÍAZ COVARRUBIAS, CÓDIGO POSTAL 56600, CHALCO, MÉXICO","ubicacion":"DOMICILIO PARTICULAR","referencia":"ENTRE BOULEVARD CUAUHTÉMOC Y CALLE JOSÉ LÓPEZ PORTILLO","tipo_domicilio":"PARTICULAR","numero_casillas":1,"ubicaciones_seccion":1},"geometry":{"type":"Point","coordinates":[-98.887528,19.272862]}},{"type":"Feature","properties":{"id":"990-1","seccion":"990","ubicacion_numero":1,"domicilio":"CALLE LUIS ECHEVERRÍA, SIN NÚMERO, SANTA CRUZ AMALINALCO, CHALCO DE DÍAZ COVARRUBIAS, CÓDIGO POSTAL 56609, CHALCO, MÉXICO","ubicacion":"CANCHA DE BÁSQUETBOL","referencia":"FRENTE A LA DELEGACIÓN MUNICIPAL","tipo_domicilio":"LUGAR PÚBLICO","numero_casillas":1,"ubicaciones_seccion":1},"geometry":{"type":"Point","coordinates":[-98.88144099999998,19.278337]}},{"type":"Feature","properties":{"id":"991-1","seccion":"991","ubicacion_numero":1,"domicilio":"CALLE OTILIO AMEZCUA, SIN NÚMERO, COLONIA EMILIANO ZAPATA, CHALCO DE DÍAZ COVARRUBIAS, CÓDIGO POSTAL 56608, CHALCO, MÉXICO","ubicacion":"ESCUELA PRIMARIA IGNACIO MANUEL ALTAMIRANO","referencia":"ESQUINA AVENIDA TIERRA Y LIBERTAD","tipo_domicilio":"ESCUELA","numero_casillas":2,"ubicaciones_seccion":1},"geometry":{"type":"Point","coordinates":[-98.885276,19.276674]}},{"type":"Feature","properties":{"id":"992-1","seccion":"992","ubicacion_numero":1,"domicilio":"CALLE JUSTICIA SOCIAL, SIN NÚMERO, COLONIA EMILIANO ZAPATA, CHALCO DE DÍAZ COVARRUBIAS, CÓDIGO POSTAL 56608, CHALCO, MÉXICO","ubicacion":"CANCHA DE BÁSQUETBOL","referencia":"ESQUINA CALLE CAMPESINOS","tipo_domicilio":"LUGAR PÚBLICO","numero_casillas":2,"ubicaciones_seccion":1},"geometry":{"type":"Point","coordinates":[-98.890817,19.275543]}},{"type":"Feature","properties":{"id":"993-1","seccion":"993","ubicacion_numero":1,"domicilio":"CALLE 16 DE SEPTIEMBRE, SIN NÚMERO, COLONIA SAN MIGUEL JACALONES I, CHALCO DE DÍAZ COVARRUBIAS, CÓDIGO POSTAL 56604, CHALCO, MÉXICO","ubicacion":"ESCUELA JARDÍN DE NIÑOS LÁZARO CÁRDENAS","referencia":"ENTRE AVENIDA AQUILES SERDÁN Y CALLE 2 DE ABRIL","tipo_domicilio":"ESCUELA","numero_casillas":1,"ubicaciones_seccion":1},"geometry":{"type":"Point","coordinates":[-98.896967,19.271701]}},{"type":"Feature","properties":{"id":"994-1","seccion":"994","ubicacion_numero":1,"domicilio":"CALLE 2 DE MARZO, SIN NÚMERO, COLONIA SAN MIGUEL JACALONES II, CHALCO DE DÍAZ COVARRUBIAS, CÓDIGO POSTAL 56604, CHALCO, MÉXICO","ubicacion":"CANCHAS DE BÁSQUETBOL","referencia":"ESQUINA CALLE 7 DE MARZO","tipo_domicilio":"LUGAR PÚBLICO","numero_casillas":1,"ubicaciones_seccion":1},"geometry":{"type":"Point","coordinates":[-98.900175,19.269241]}},{"type":"Feature","properties":{"id":"1017-1","seccion":"1017","ubicacion_numero":1,"domicilio":"CALLE HUITZILOPOCHTLI, SIN NÚMERO, COLONIA CULTURAS DE MÉXICO, CHALCO DE DÍAZ COVARRUBIAS, CÓDIGO POSTAL 56607, CHALCO, MÉXICO","ubicacion":"ESCUELA PRIMARIA HUITZILOPOCHTLI","referencia":"ESQUINA CON AVENIDA TLÁLOC","tipo_domicilio":"ESCUELA","numero_casillas":1,"ubicaciones_seccion":1},"geometry":{"type":"Point","coordinates":[-98.91282799999999,19.267334]}},{"type":"Feature","properties":{"id":"1018-1","seccion":"1018","ubicacion_numero":1,"domicilio":"CALLE MIXES, SIN NÚMERO, COLONIA CULTURAS DE MÉXICO, CHALCO DE DÍAZ COVARRUBIAS, CÓDIGO POSTAL 56607, CHALCO, MÉXICO","ubicacion":"OFICINAS DEL CENTRO DE DESARROLLO COMUNITARIO","referencia":"ESQUINA CALLE CHALCHIUHTLICUE","tipo_domicilio":"OFICINA PÚBLICA","numero_casillas":1,"ubicaciones_seccion":1},"geometry":{"type":"Point","coordinates":[-98.90753899999999,19.265435]}},{"type":"Feature","properties":{"id":"1019-1","seccion":"1019","ubicacion_numero":1,"domicilio":"CALLE MIXTECAS, SIN NÚMERO, COLONIA CULTURAS DE MÉXICO, CHALCO DE DÍAZ COVARRUBIAS, CÓDIGO POSTAL 56607, CHALCO, MÉXICO","ubicacion":"CANCHA DE BÁSQUETBOL","referencia":"ESQUINA AVENIDA TEXCATLIPOCA","tipo_domicilio":"LUGAR PÚBLICO","numero_casillas":1,"ubicaciones_seccion":1},"geometry":{"type":"Point","coordinates":[-98.90596999999998,19.268128]}},{"type":"Feature","properties":{"id":"1020-1","seccion":"1020","ubicacion_numero":1,"domicilio":"AVENIDA TEXCATLIPOCA, SIN NÚMERO, COLONIA CULTURAS DE MÉXICO, CHALCO DE DÍAZ COVARRUBIAS, CÓDIGO POSTAL 56607, CHALCO, MÉXICO","ubicacion":"ESCUELA SECUNDARIA OFICIAL NÚMERO 627 CUITLÁHUAC","referencia":"ENTRE CALLE YAQUIS Y CALLE TARASCOS","tipo_domicilio":"ESCUELA","numero_casillas":1,"ubicaciones_seccion":1},"geometry":{"type":"Point","coordinates":[-98.904458,19.269713]}},{"type":"Feature","properties":{"id":"1021-1","seccion":"1021","ubicacion_numero":1,"domicilio":"AVENIDA SOLIDARIDAD, NÚMERO 798, COLONIA CULTURAS DE MÉXICO, CHALCO DE DÍAZ COVARRUBIAS, CÓDIGO POSTAL 56607, CHALCO, MÉXICO","ubicacion":"ESTACIONAMIENTO DE LA OFICINA DEL SISTEMA MUNICIPAL PARA EL DESARROLLO INTEGRAL DE LA FAMILIA DE CHALCO, ESTADO DE MÉXICO","referencia":"CASI ESQUINA CALLE CHALCHIUHTLICUE","tipo_domicilio":"LUGAR PÚBLICO","numero_casillas":1,"ubicaciones_seccion":1},"geometry":{"type":"Point","coordinates":[-98.902094,19.268431]}},{"type":"Feature","properties":{"id":"1022-1","seccion":"1022","ubicacion_numero":1,"domicilio":"CALLE CARRILLO PUERTO SIN NÚMERO, COLONIA CHALCO CENTRO, CHALCO DE DÍAZ COVARRUBIAS, CÓDIGO POSTAL 56600, CHALCO, MÉXICO","ubicacion":"OFICINAS DEL COMISARIADO EJIDAL","referencia":"CASI ESQUINA BOULEVARD CUAUHTÉMOC PONIENTE","tipo_domicilio":"OFICINA PÚBLICA","numero_casillas":1,"ubicaciones_seccion":1},"geometry":{"type":"Point","coordinates":[-98.899374,19.264771]}},{"type":"Feature","properties":{"id":"1023-1","seccion":"1023","ubicacion_numero":1,"domicilio":"CALLE PINO SUÁREZ, SIN NÚMERO, COLONIA EJIDAL, CHALCO DE DÍAZ COVARRUBIAS, CÓDIGO POSTAL 56600, CHALCO, MÉXICO","ubicacion":"DOMICILIO PARTICULAR","referencia":"ESQUINA CALLE COVARRUBIAS","tipo_domicilio":"PARTICULAR","numero_casillas":1,"ubicaciones_seccion":1},"geometry":{"type":"Point","coordinates":[-98.894971,19.266503]}},{"type":"Feature","properties":{"id":"1024-1","seccion":"1024","ubicacion_numero":1,"domicilio":"CALLE 12 DE OCTUBRE, SIN NÚMERO, COLONIA LA BOMBA, CHALCO DE DÍAZ COVARRUBIAS, CÓDIGO POSTAL 56600, CHALCO, MÉXICO","ubicacion":"DELEGACIÓN MUNICIPAL","referencia":"ENTRE CALLE CIPRÉS Y CALLE PUERTO VALLARTA","tipo_domicilio":"OFICINA PÚBLICA","numero_casillas":1,"ubicaciones_seccion":1},"geometry":{"type":"Point","coordinates":[-98.88804100000002,19.270013]}},{"type":"Feature","properties":{"id":"1025-1","seccion":"1025","ubicacion_numero":1,"domicilio":"AVENIDA TIZAPA, SIN NÚMERO, COLONIA CASCO DE SAN JUAN, CHALCO DE DÍAZ COVARRUBIAS, CÓDIGO POSTAL 56600, CHALCO, MÉXICO","ubicacion":"ESCUELA PRIMARIA DOCTOR GUSTAVO BAZ","referencia":"ESQUINA CALLE INSURGENTES","tipo_domicilio":"ESCUELA","numero_casillas":1,"ubicaciones_seccion":1},"geometry":{"type":"Point","coordinates":[-98.888067,19.267608]}},{"type":"Feature","properties":{"id":"1026-1","seccion":"1026","ubicacion_numero":1,"domicilio":"CALLE REFORMA, SIN NÚMERO, COLONIA CHALCO CENTRO, CHALCO DE DÍAZ COVARRUBIAS, CÓDIGO POSTAL 56600, CHALCO, MÉXICO","ubicacion":"PARQUE MUNICIPAL CHALCO","referencia":"ENTRE AVENIDA CUAUHTÉMOC Y CALLE PORFIRIO DÍAZ","tipo_domicilio":"LUGAR PÚBLICO","numero_casillas":1,"ubicaciones_seccion":1},"geometry":{"type":"Point","coordinates":[-98.895654,19.261402]}},{"type":"Feature","properties":{"id":"1027-1","seccion":"1027","ubicacion_numero":1,"domicilio":"CALLE VALIENTES, NÚMERO 26, BARRIO SAN SEBASTIÁN, CHALCO DE DÍAZ COVARRUBIAS, CÓDIGO POSTAL 56600, CHALCO, MÉXICO","ubicacion":"EX EDIFICIO DEL SISTEMA MUNICIPAL DEL DESARROLLO INTEGRAL PARA LA FAMILIA","referencia":"ESQUINA CALLE BENITO JUÁREZ","tipo_domicilio":"LUGAR PÚBLICO","numero_casillas":1,"ubicaciones_seccion":1},"geometry":{"type":"Point","coordinates":[-98.902232,19.260857]}},{"type":"Feature","properties":{"id":"1035-1","seccion":"1035","ubicacion_numero":1,"domicilio":"CALLE CRISANTEMOS, SIN NÚMERO, COLONIA JARDINES DE CHALCO, CHALCO DE DÍAZ COVARRUBIAS, CÓDIGO POSTAL 56607, CHALCO, MÉXICO","ubicacion":"DOMICILIO PARTICULAR","referencia":"ESQUINA CALLE MIRASOL","tipo_domicilio":"PARTICULAR","numero_casillas":1,"ubicaciones_seccion":1},"geometry":{"type":"Point","coordinates":[-98.92035099999998,19.255706]}},{"type":"Feature","properties":{"id":"1036-1","seccion":"1036","ubicacion_numero":1,"domicilio":"CALLE PALMITOS, SIN NÚMERO, COLONIA JARDINES DE CHALCO, CHALCO DE DÍAZ COVARRUBIAS, CÓDIGO POSTAL 56607, CHALCO, MÉXICO","ubicacion":"ESCUELA JARDÍN DE NIÑOS EFRAÍN HUERTA","referencia":"ESQUINA AVENIDA CRISANTEMOS","tipo_domicilio":"ESCUELA","numero_casillas":2,"ubicaciones_seccion":1},"geometry":{"type":"Point","coordinates":[-98.91887800000002,19.256777]}},{"type":"Feature","properties":{"id":"1037-1","seccion":"1037","ubicacion_numero":1,"domicilio":"CALLE FLOR SILVESTRE, SIN NÚMERO, COLONIA JARDINES DE CHALCO, CHALCO DE DÍAZ COVARRUBIAS, CÓDIGO POSTAL 56607, CHALCO, MÉXICO","ubicacion":"ESCUELA TELESECUNDARIA NÚMERO 372 IGNACIO RAMÍREZ","referencia":"ESQUINA CALLE MARGARITAS","tipo_domicilio":"ESCUELA","numero_casillas":2,"ubicaciones_seccion":1},"geometry":{"type":"Point","coordinates":[-98.915598,19.258478]}},{"type":"Feature","properties":{"id":"1038-1","seccion":"1038","ubicacion_numero":1,"domicilio":"CALLE LAS FLORES, SIN NÚMERO, COLONIA JARDINES DE CHALCO, CHALCO DE DÍAZ COVARRUBIAS, CÓDIGO POSTAL 56607, CHALCO, MÉXICO","ubicacion":"ESCUELA SECUNDARIA OFICIAL 0646 FRIDA KAHLO","referencia":"ENTRE CALLE DALIA Y CALLE ORQUÍDEAS","tipo_domicilio":"ESCUELA","numero_casillas":1,"ubicaciones_seccion":1},"geometry":{"type":"Point","coordinates":[-98.91639499999998,19.264112]}},{"type":"Feature","properties":{"id":"1039-1","seccion":"1039","ubicacion_numero":1,"domicilio":"AVENIDA CRISANTEMOS, SIN NÚMERO, COLONIA JARDINES DE CHALCO, CHALCO DE DÍAZ COVARRUBIAS, CÓDIGO POSTAL 56607, CHALCO, MÉXICO","ubicacion":"CENTRO DE SALUD JARDINES DEL INSTITUTO DE SALUD DEL ESTADO DE MÉXICO","referencia":"CASI ESQUINA AVENIDA TLÁLOC","tipo_domicilio":"LUGAR PÚBLICO","numero_casillas":1,"ubicaciones_seccion":1},"geometry":{"type":"Point","coordinates":[-98.91123999999999,19.263699]}},{"type":"Feature","properties":{"id":"1041-1","seccion":"1041","ubicacion_numero":1,"domicilio":"CALLE ALZATE, NÚMERO 22, BARRIO LA CONCHITA, CHALCO DE DÍAZ COVARRUBIAS, CÓDIGO POSTAL 56600, CHALCO, MÉXICO","ubicacion":"DOMICILIO PARTICULAR","referencia":"ESQUINA CALLE NIÑO ARTILLERO","tipo_domicilio":"PARTICULAR","numero_casillas":1,"ubicaciones_seccion":1},"geometry":{"type":"Point","coordinates":[-98.898358,19.258297]}},{"type":"Feature","properties":{"id":"1042-1","seccion":"1042","ubicacion_numero":1,"domicilio":"CALLE NIÑO ARTILLERO, MANZANA 3, LOTE 3, BARRIO LA CONCHITA, CHALCO DE DÍAZ COVARRUBIAS, CÓDIGO POSTAL 56600, CHALCO, MÉXICO","ubicacion":"DOMICILIO PARTICULAR","referencia":"ESQUINA CALLE LOS REYES","tipo_domicilio":"PARTICULAR","numero_casillas":1,"ubicaciones_seccion":1},"geometry":{"type":"Point","coordinates":[-98.894388,19.256438]}},{"type":"Feature","properties":{"id":"1044-1","seccion":"1044","ubicacion_numero":1,"domicilio":"PRIVADA RÍO VERDE, SIN NÚMERO, COLONIA AMPLIACIÓN GUADALUPE, SAN MARCOS HUIXTOCO, CÓDIGO POSTAL 56643, CHALCO, MÉXICO","ubicacion":"ESCUELA SECUNDARIA OFICIAL 1033 RICARDO FLORES MAGÓN","referencia":"ENTRE CAMINO REAL Y RÍO RHÍN","tipo_domicilio":"ESCUELA","numero_casillas":2,"ubicaciones_seccion":1},"geometry":{"type":"Point","coordinates":[-98.85923599999998,19.300987]}},{"type":"Feature","properties":{"id":"1045-1","seccion":"1045","ubicacion_numero":1,"domicilio":"AVENIDA EJIDAL, NÚMERO 1, SAN MARCOS HUIXTOCO, CÓDIGO POSTAL 56643, CHALCO, MÉXICO","ubicacion":"ESCUELA SECUNDARIA GENERAL FEDERALIZADA NÚMERO 144 JUAN ESCUTIA","referencia":"ESQUINA CALLE SAN ÁNGEL","tipo_domicilio":"ESCUELA","numero_casillas":1,"ubicaciones_seccion":1},"geometry":{"type":"Point","coordinates":[-98.865753,19.295603]}},{"type":"Feature","properties":{"id":"1046-1","seccion":"1046","ubicacion_numero":1,"domicilio":"CALLE PERA, SIN NÚMERO, SAN MARCOS HUIXTOCO, CÓDIGO POSTAL 56643, CHALCO, MÉXICO","ubicacion":"DOMICILIO PARTICULAR","referencia":"ESQUINA AVENIDA EJIDAL","tipo_domicilio":"PARTICULAR","numero_casillas":1,"ubicaciones_seccion":1},"geometry":{"type":"Point","coordinates":[-98.86762300000001,19.294068]}},{"type":"Feature","properties":{"id":"1047-1","seccion":"1047","ubicacion_numero":1,"domicilio":"CALLE FRANCISCO I. MADERO, SIN NÚMERO, SAN LUCAS AMALINALCO, CÓDIGO POSTAL 56642, CHALCO, MÉXICO","ubicacion":"ESCUELA TELESECUNDARIA JUAN RUIZ DE ALARCÓN","referencia":"ENTRE CALLE NIÑO ARTILLERO Y CALLE INDEPENDENCIA","tipo_domicilio":"ESCUELA","numero_casillas":2,"ubicaciones_seccion":1},"geometry":{"type":"Point","coordinates":[-98.863188,19.26988]}},{"type":"Feature","properties":{"id":"1048-1","seccion":"1048","ubicacion_numero":1,"domicilio":"CALLE ARBOLEDAS, SIN NÚMERO, SAN MARTÍN CUAUTLALPAN, CÓDIGO POSTAL 56644, CHALCO, MÉXICO","ubicacion":"ESCUELA SECUNDARIA 0224 RAMON LÓPEZ VELARDE","referencia":"ENTRE CALLE RUBÉN DARÍO U OYAMEL Y CALLE MIGUEL HIDALGO","tipo_domicilio":"ESCUELA","numero_casillas":1,"ubicaciones_seccion":1},"geometry":{"type":"Point","coordinates":[-98.83912,19.277925]}},{"type":"Feature","properties":{"id":"1049-1","seccion":"1049","ubicacion_numero":1,"domicilio":"CALLE EMILIANO ZAPATA, SIN NÚMERO, COLONIA LA MORA, SAN MARTÍN CUAUTLALPAN, CÓDIGO POSTAL 56644, CHALCO, MÉXICO","ubicacion":"CENTRO DE ESTUDIOS TECNOLÓGICOS INDUSTRIAL Y DE SERVICIOS NÚMERO 96","referencia":"JUNTO A LA BARRANCA","tipo_domicilio":"ESCUELA","numero_casillas":1,"ubicaciones_seccion":1},"geometry":{"type":"Point","coordinates":[-98.833764,19.275934]}},{"type":"Feature","properties":{"id":"1050-1","seccion":"1050","ubicacion_numero":1,"domicilio":"CALLE NEZAHUALCÓYOTL, SIN NÚMERO, BARRIO ATLAHUITE, SAN MARTÍN CUAUTLALPAN, CÓDIGO POSTAL 56644, CHALCO, MÉXICO","ubicacion":"ESCUELA PRIMARIA RICARDO FLORES MAGÓN","referencia":"ENTRE CALLE CONSTITUCIONAL Y AVENIDA NACIONAL","tipo_domicilio":"ESCUELA","numero_casillas":2,"ubicaciones_seccion":1},"geometry":{"type":"Point","coordinates":[-98.81887599999999,19.272512]}},{"type":"Feature","properties":{"id":"1051-1","seccion":"1051","ubicacion_numero":1,"domicilio":"CALLE FRANCISCO SARABIA, NÚMERO 6, SAN MARTÍN CUAUTLALPAN, CÓDIGO POSTAL 56644, CHALCO, MÉXICO","ubicacion":"ESCUELA JARDÍN DE NIÑOS SOR JUANA INÉS DE LA CRUZ","referencia":"ENTRE CALLE RICARDO VICTORIO Y CALLEJÓN FRANCISCO SARABIA","tipo_domicilio":"ESCUELA","numero_casillas":1,"ubicaciones_seccion":1},"geometry":{"type":"Point","coordinates":[-98.831316,19.27276]}},{"type":"Feature","properties":{"id":"1053-1","seccion":"1053","ubicacion_numero":1,"domicilio":"CALLE JOSÉ MARÍA MORELOS Y PAVÓN NORTE, NÚMERO 1, SAN GREGORIO CUAUTZINGO, CÓDIGO POSTAL 56640, CHALCO, MÉXICO","ubicacion":"ESCUELA PRIMARIA FEDERAL BENITO JUÁREZ, TURNO MATUTINO Y ESCUELA PRIMARIA FEDERAL ADOLFO LÓPEZ MATEOS, TURNO VESPERTINO","referencia":"ESQUINA CALZADA BENITO JUÁREZ ORIENTE","tipo_domicilio":"ESCUELA","numero_casillas":1,"ubicaciones_seccion":1},"geometry":{"type":"Point","coordinates":[-98.856888,19.26287]}},{"type":"Feature","properties":{"id":"1056-1","seccion":"1056","ubicacion_numero":1,"domicilio":"CALLE SONORA, NÚMERO 23, SANTA MARÍA HUEXOCULCO, CÓDIGO POSTAL 56646, CHALCO, MÉXICO","ubicacion":"ESCUELA TELESECUNDARIA OFICIAL NÚMERO 106 AGUSTÍN FRANCO FLORES","referencia":"ENTRE CALLE MORELIA Y CALLE SAN MIGUEL DE ALLENDE","tipo_domicilio":"ESCUELA","numero_casillas":1,"ubicaciones_seccion":1},"geometry":{"type":"Point","coordinates":[-98.82254,19.260226]}},{"type":"Feature","properties":{"id":"1057-1","seccion":"1057","ubicacion_numero":1,"domicilio":"CALLE 2 DE ABRIL, NÚMERO 60, SANTA MARÍA HUEXOCULCO, CÓDIGO POSTAL 56646, CHALCO, MÉXICO","ubicacion":"DOMICILIO PARTICULAR","referencia":"A UN COSTADO DEL PUENTE","tipo_domicilio":"PARTICULAR","numero_casillas":1,"ubicaciones_seccion":1},"geometry":{"type":"Point","coordinates":[-98.81786999999998,19.258105]}},{"type":"Feature","properties":{"id":"1058-1","seccion":"1058","ubicacion_numero":1,"domicilio":"CALLE VICENTE GUERRERO ORIENTE, SIN NÚMERO, SANTA MARÍA HUEXOCULCO, CÓDIGO POSTAL 56646, CHALCO, MÉXICO","ubicacion":"ESCUELA SECUNDARIA TÉCNICA 133 MIGUEL ALEMÁN","referencia":"ENTRE CALLE BENITO JUÁREZ Y CALLE NACIONAL","tipo_domicilio":"ESCUELA","numero_casillas":1,"ubicaciones_seccion":1},"geometry":{"type":"Point","coordinates":[-98.820724,19.253224]}},{"type":"Feature","properties":{"id":"1059-1","seccion":"1059","ubicacion_numero":1,"domicilio":"CALLE BENITO JUÁREZ, NÚMERO 1, SANTA MARÍA HUEXOCULCO, CÓDIGO POSTAL 56646, CHALCO, MÉXICO","ubicacion":"ESCUELA PRIMARIA FEDERALIZADA PROFESOR RAFAEL M. NAVAS TURNO MATUTINO Y O GENERAL LÁZARO CÁRDENAS TURNO VESPERTINO","referencia":"ESQUINA CALLE HIDALGO PONIENTE","tipo_domicilio":"ESCUELA","numero_casillas":1,"ubicaciones_seccion":1},"geometry":{"type":"Point","coordinates":[-98.82069999999999,19.256917]}},{"type":"Feature","properties":{"id":"1060-1","seccion":"1060","ubicacion_numero":1,"domicilio":"CALLE HIDALGO PONIENTE, NÚMERO 27, SANTA MARÍA HUEXOCULCO, CÓDIGO POSTAL 56646, CHALCO, MÉXICO","ubicacion":"DOMICILIO PARTICULAR","referencia":"CASI ESQUINA CALLE GENOVEVO DE LA O","tipo_domicilio":"PARTICULAR","numero_casillas":1,"ubicaciones_seccion":1},"geometry":{"type":"Point","coordinates":[-98.823328,19.257532]}},{"type":"Feature","properties":{"id":"1062-1","seccion":"1062","ubicacion_numero":1,"domicilio":"AVENIDA JUAN ESCUTIA MIGUEL HIDALGO, SIN NÚMERO, SAN MARTÍN XICO NUEVO, CÓDIGO POSTAL 56625, CHALCO, MÉXICO","ubicacion":"ESCUELA PRIMARIA FEDERAL ANÁHUAC","referencia":"CASI ESQUINA CALLE INDEPENDENCIA","tipo_domicilio":"ESCUELA","numero_casillas":1,"ubicaciones_seccion":1},"geometry":{"type":"Point","coordinates":[-98.91620299999998,19.235997]}},{"type":"Feature","properties":{"id":"1063-1","seccion":"1063","ubicacion_numero":1,"domicilio":"CALLE DE LA ROSA, SIN NÚMERO, SAN MATEO HUITZILZINGO, CÓDIGO POSTAL 56625, CHALCO, MÉXICO","ubicacion":"JARDÍN DE NIÑOS GENARO ESTRADA","referencia":"ENTRE CALLE ALFREDO BARANDA Y AVENIDA INDEPENDENCIA","tipo_domicilio":"ESCUELA","numero_casillas":1,"ubicaciones_seccion":1},"geometry":{"type":"Point","coordinates":[-98.92530399999998,19.230601]}},{"type":"Feature","properties":{"id":"1064-1","seccion":"1064","ubicacion_numero":1,"domicilio":"AVENIDA INDEPENDENCIA, SIN NÚMERO, SAN MATEO HUITZILZINGO, CÓDIGO POSTAL 56625, CHALCO, MÉXICO","ubicacion":"PLAZA DE LA DELEGACIÓN MUNICIPAL","referencia":"ESQUINA CON CALLE 16 DE SEPTIEMBRE","tipo_domicilio":"LUGAR PÚBLICO","numero_casillas":1,"ubicaciones_seccion":1},"geometry":{"type":"Point","coordinates":[-98.92595799999998,19.227742]}},{"type":"Feature","properties":{"id":"1066-1","seccion":"1066","ubicacion_numero":1,"domicilio":"CALLE GERANIO, SIN NÚMERO, SAN MATEO TEZOQUIPAN MIRAFLORES, CÓDIGO POSTAL 56645, CHALCO, MÉXICO","ubicacion":"JARDÍN DE NIÑOS CONSUELO R. FERNÁNDEZ ALBARRÁN","referencia":"ESQUINA CALLE TULIPÁN","tipo_domicilio":"ESCUELA","numero_casillas":1,"ubicaciones_seccion":1},"geometry":{"type":"Point","coordinates":[-98.816213,19.225384]}},{"type":"Feature","properties":{"id":"1067-1","seccion":"1067","ubicacion_numero":1,"domicilio":"CALLE JOSEFA ORTIZ DE DOMÍNGUEZ, NÚMERO 12, SAN MATEO TEZOQUIPAN MIRAFLORES, CÓDIGO POSTAL 56647, CHALCO, MÉXICO","ubicacion":"DOMICILIO PARTICULAR","referencia":"CASI ESQUINA CALLE MEJORADA","tipo_domicilio":"PARTICULAR","numero_casillas":1,"ubicaciones_seccion":1},"geometry":{"type":"Point","coordinates":[-98.81127800000002,19.226983]}},{"type":"Feature","properties":{"id":"1068-1","seccion":"1068","ubicacion_numero":1,"domicilio":"AVENIDA EUFEMIO ZAPATA, SIN NÚMERO, SAN MATEO TEZOQUIPAN MIRAFLORES, CÓDIGO POSTAL 56645, CHALCO, MÉXICO","ubicacion":"CANCHA DEPORTIVA EL ZAPOTE","referencia":"ESQUINA CALLE PLAN DE AYALA","tipo_domicilio":"LUGAR PÚBLICO","numero_casillas":1,"ubicaciones_seccion":1},"geometry":{"type":"Point","coordinates":[-98.810403,19.223283]}},{"type":"Feature","properties":{"id":"1069-1","seccion":"1069","ubicacion_numero":1,"domicilio":"CALLE CIRUELA, SIN NÚMERO, SAN MATEO TEZOQUIPAN MIRAFLORES, CÓDIGO POSTAL 56645, CHALCO, MÉXICO","ubicacion":"ESCUELA PRIMARIA TIERRA Y LIBERTAD","referencia":"CASI ESQUINA CALLE SIN NOMBRE","tipo_domicilio":"ESCUELA","numero_casillas":1,"ubicaciones_seccion":1},"geometry":{"type":"Point","coordinates":[-98.818508,19.223382]}},{"type":"Feature","properties":{"id":"1070-1","seccion":"1070","ubicacion_numero":1,"domicilio":"CALLE INDEPENDENCIA, SIN NÚMERO, SAN PABLO ATLAZALPAN, CÓDIGO POSTAL 56620, CHALCO, MÉXICO","ubicacion":"EXPLANADA DE LA DELEGACIÓN MUNICIPAL","referencia":"ENTRE CALLE PROGRESO Y CALLE 16 DE SEPTIEMBRE","tipo_domicilio":"LUGAR PÚBLICO","numero_casillas":1,"ubicaciones_seccion":1},"geometry":{"type":"Point","coordinates":[-98.908871,19.217291]}},{"type":"Feature","properties":{"id":"1071-1","seccion":"1071","ubicacion_numero":1,"domicilio":"CALLE MORELOS ORIENTE, NÚMERO 11, SAN PABLO ATLAZALPAN, CÓDIGO POSTAL 56620, CHALCO, MÉXICO","ubicacion":"DOMICILIO PARTICULAR","referencia":"ENTRE CALLE GUADALUPE VICTORIA Y CALLEJÓN DEL MUERTO O LIBERTAD","tipo_domicilio":"PARTICULAR","numero_casillas":2,"ubicaciones_seccion":1},"geometry":{"type":"Point","coordinates":[-98.904383,19.2185]}},{"type":"Feature","properties":{"id":"1072-1","seccion":"1072","ubicacion_numero":1,"domicilio":"CALZADA DE DOLORES, SIN NÚMERO, SAN PABLO ATLAZALPAN, CÓDIGO POSTAL 56620, CHALCO, MÉXICO","ubicacion":"DEPORTIVO BENITO JUÁREZ","referencia":"ESQUINA CALLE CEDRO SAN MIGUEL DE ALLENDE","tipo_domicilio":"LUGAR PÚBLICO","numero_casillas":2,"ubicaciones_seccion":1},"geometry":{"type":"Point","coordinates":[-98.910972,19.210587]}},{"type":"Feature","properties":{"id":"1073-1","seccion":"1073","ubicacion_numero":1,"domicilio":"CALLE CAMPO FLORIDO, SIN NÚMERO, SAN PABLO ATLAZALPAN, CÓDIGO POSTAL 56620, CHALCO, MÉXICO","ubicacion":"ESCUELA PRIMARIA JOSÉ VICENTE VILLADA, MATUTINO, JUAN ESCUTIA, VESPERTINO","referencia":"ESQUINA PROLONGACIÓN ÁVILA CAMACHO","tipo_domicilio":"ESCUELA","numero_casillas":2,"ubicaciones_seccion":1},"geometry":{"type":"Point","coordinates":[-98.91352600000002,19.213862]}},{"type":"Feature","properties":{"id":"1074-1","seccion":"1074","ubicacion_numero":1,"domicilio":"CALLE INDEPENDENCIA PONIENTE, SIN NÚMERO, SANTA CATARINA AYOTZINGO, CÓDIGO POSTAL 56623, CHALCO, MÉXICO","ubicacion":"CENTRO COMUNITARIO CASA DE LA TERCERA EDAD","referencia":"ESQUINA CON CALLE MORELOS NORTE","tipo_domicilio":"LUGAR PÚBLICO","numero_casillas":1,"ubicaciones_seccion":1},"geometry":{"type":"Point","coordinates":[-98.93026,19.210892]}},{"type":"Feature","properties":{"id":"1075-1","seccion":"1075","ubicacion_numero":1,"domicilio":"AVENIDA HERNÁN CORTÉS, SIN NÚMERO, SANTA CATARINA AYOTZINGO, CÓDIGO POSTAL 56623, CHALCO, MÉXICO","ubicacion":"ESCUELA SECUNDARIA OFICIAL NÚMERO 325 JUAN ALDAMA","referencia":"ENTRE CALLE EMILIANO ZAPATA Y CALLE ITURBIDE NORTE","tipo_domicilio":"ESCUELA","numero_casillas":1,"ubicaciones_seccion":1},"geometry":{"type":"Point","coordinates":[-98.9293,19.209262]}},{"type":"Feature","properties":{"id":"1076-1","seccion":"1076","ubicacion_numero":1,"domicilio":"CALLE 29 DE SEPTIEMBRE, SIN NÚMERO, BARRIO SAN MIGUEL, SANTA CATARINA AYOTZINGO, CÓDIGO POSTAL 56623, CHALCO, MÉXICO","ubicacion":"DOMICILIO PARTICULAR","referencia":"ESQUINA CALLE SAN MIGUEL","tipo_domicilio":"PARTICULAR","numero_casillas":2,"ubicaciones_seccion":1},"geometry":{"type":"Point","coordinates":[-98.93334199999998,19.20787]}},{"type":"Feature","properties":{"id":"1077-1","seccion":"1077","ubicacion_numero":1,"domicilio":"CALLE ALMOLOYA, SIN NÚMERO, SAN JUAN Y SAN PEDRO TEZOMPA, CÓDIGO POSTAL 56624, CHALCO, MÉXICO","ubicacion":"ESCUELA PRIMARIA MARGARITA MAZA DE JUÁREZ","referencia":"ENTRE CALLEJÓN ÁLAMO Y CALLEJÓN DE ALMOLOYA","tipo_domicilio":"ESCUELA","numero_casillas":1,"ubicaciones_seccion":1},"geometry":{"type":"Point","coordinates":[-98.96473899999998,19.210225]}},{"type":"Feature","properties":{"id":"1078-1","seccion":"1078","ubicacion_numero":1,"domicilio":"AVENIDA BENITO JUÁREZ, SIN NÚMERO, SAN JUAN Y SAN PEDRO TEZOMPA, CÓDIGO POSTAL 56624, CHALCO, MÉXICO","ubicacion":"ESCUELA PRIMARIA FEDERAL PROFESOR OTILIO MONTAÑO TURNO VESPERTINO, INGENIERO RAFAEL GARCÍA MORENO TURNO MATUTINO","referencia":"CASI ESQUINA CALLE REFORMA","tipo_domicilio":"ESCUELA","numero_casillas":1,"ubicaciones_seccion":1},"geometry":{"type":"Point","coordinates":[-98.960398,19.206458]}},{"type":"Feature","properties":{"id":"1079-1","seccion":"1079","ubicacion_numero":1,"domicilio":"CALLE EDUCACIÓN, SIN NÚMERO, BARRIO LA LUZ, SAN JUAN Y SAN PEDRO TEZOMPA, CÓDIGO POSTAL 56624, CHALCO, MÉXICO","ubicacion":"ESCUELA SECUNDARIA OFICIAL NÚMERO 0475 PROFESOR ALFONSO DEL VALLE SALCEDO","referencia":"ESQUINA CERRADA EDUCACIÓN","tipo_domicilio":"ESCUELA","numero_casillas":2,"ubicaciones_seccion":1},"geometry":{"type":"Point","coordinates":[-98.96275100000001,19.202695]}},{"type":"Feature","properties":{"id":"1080-1","seccion":"1080","ubicacion_numero":1,"domicilio":"CALLE SAN LORENZO, NÚMERO 69, SAN LORENZO CHIMALPA, CÓDIGO POSTAL 56625, CHALCO, MÉXICO","ubicacion":"ESCUELA PRIMARIA BENITO JUÁREZ","referencia":"ESQUINA CON CALLE DEL PANTEÓN","tipo_domicilio":"ESCUELA","numero_casillas":2,"ubicaciones_seccion":1},"geometry":{"type":"Point","coordinates":[-98.918944,19.236255]}},{"type":"Feature","properties":{"id":"6814-1","seccion":"6814","ubicacion_numero":1,"domicilio":"BOULEVARD LOS HÉROES CHALCO, SIN NÚMERO, CONJUNTO HABITACIONAL URBANO LOS HÉROES CHALCO, SAN GREGORIO CUAUTZINGO, CÓDIGO POSTAL 56644, CHALCO, ESTADO DE MÉXICO","ubicacion":"ESCUELA PRIMARIA JOSÉ CARBAJAL GARCÍA","referencia":"CASI ESQUINA CON CALLE ENCINO","tipo_domicilio":"ESCUELA","numero_casillas":1,"ubicaciones_seccion":1},"geometry":{"type":"Point","coordinates":[-98.848799,19.263164]}},{"type":"Feature","properties":{"id":"6815-1","seccion":"6815","ubicacion_numero":1,"domicilio":"BOULEVARD LOS HÉROES CHALCO, LOTE 3, CONJUNTO HABITACIONAL URBANO LOS HÉROES CHALCO, SAN MARTÍN CUAUTLALPAN, CÓDIGO POSTAL 56640, CHALCO, ESTADO DE MÉXICO","ubicacion":"ESCUELA PRIMARIA PROFESORA MARÍA PETRA ARREOLA ECHEVERRÍA","referencia":"ENTRE CALLE POZO CAJONES Y AVENIDA TLAPALA","tipo_domicilio":"ESCUELA","numero_casillas":1,"ubicaciones_seccion":1},"geometry":{"type":"Point","coordinates":[-98.84601199999999,19.261176]}},{"type":"Feature","properties":{"id":"6816-1","seccion":"6816","ubicacion_numero":1,"domicilio":"CALLE SAN MARCOS HUIXTOCO, SIN NÚMERO, CONJUNTO HABITACIONAL URBANO LOS HÉROES CHALCO, SAN MARTÍN CUAUTLALPAN, CÓDIGO POSTAL 56640, CHALCO, ESTADO DE MÉXICO","ubicacion":"ESCUELA PRIMARIA LAURA MÉNDEZ DE CUENCA","referencia":"ESQUINA CON BOULEVARD LOS HÉROES CHALCO","tipo_domicilio":"ESCUELA","numero_casillas":1,"ubicaciones_seccion":1},"geometry":{"type":"Point","coordinates":[-98.834862,19.262102]}},{"type":"Feature","properties":{"id":"6817-1","seccion":"6817","ubicacion_numero":1,"domicilio":"CALLE MIGUEL HIDALGO, SIN NÚMERO, SAN GREGORIO CUAUTZINGO, CÓDIGO POSTAL 56640, CHALCO, MÉXICO","ubicacion":"DOMICILIO PARTICULAR","referencia":"ENTRE CALLE MANUEL LERDO DE TEJADA Y CALLE VENUSTIANO CARRANZA","tipo_domicilio":"PARTICULAR","numero_casillas":1,"ubicaciones_seccion":1},"geometry":{"type":"Point","coordinates":[-98.856752,19.259612]}},{"type":"Feature","properties":{"id":"6818-1","seccion":"6818","ubicacion_numero":1,"domicilio":"CALLE CERRO EL COLETO, SIN NÚMERO, CONJUNTO HABITACIONAL URBANO LOS HÉROES CHALCO, SAN MARTÍN CUAUTLALPAN, CÓDIGO POSTAL 56640, CHALCO, ESTADO DE MÉXICO","ubicacion":"ESCUELA PRIMARIA JOSÉ EMILIO PACHECO","referencia":"ENTRE CALLE CERRO DE TLAPIPI Y CALLE RÍO AMECA","tipo_domicilio":"ESCUELA","numero_casillas":1,"ubicaciones_seccion":1},"geometry":{"type":"Point","coordinates":[-98.841276,19.260397]}},{"type":"Feature","properties":{"id":"6819-1","seccion":"6819","ubicacion_numero":1,"domicilio":"CALLE FELICIANO PÉREZ CÁRDENAS, SIN NÚMERO, CONJUNTO HABITACIONAL URBANO LOS HÉROES CHALCO, SAN MARTÍN CUAUTLALPAN, CÓDIGO POSTAL 56640, CHALCO, ESTADO DE MÉXICO","ubicacion":"ESCUELA PRIMARIA DIEGO RIVERA","referencia":"ESQUINA CON CALLE ANTONIO REPISO","tipo_domicilio":"ESCUELA","numero_casillas":1,"ubicaciones_seccion":1},"geometry":{"type":"Point","coordinates":[-98.83518500000001,19.25932]}},{"type":"Feature","properties":{"id":"6820-1","seccion":"6820","ubicacion_numero":1,"domicilio":"CALLE MIRAFLORES, SIN NÚMERO, CONJUNTO HABITACIONAL URBANO LOS HÉROES CHALCO, SAN MARTÍN CUAUTLALPAN, CÓDIGO POSTAL 56640, CHALCO, ESTADO DE MÉXICO","ubicacion":"ESCUELA SECUNDARIA GENERAL LEONA VICARIO","referencia":"ENTRE CALLE HACIENDA AHUEHUETE Y CALLE HACIENDA LA COMPAÑÍA","tipo_domicilio":"ESCUELA","numero_casillas":1,"ubicaciones_seccion":1},"geometry":{"type":"Point","coordinates":[-98.838935,19.253592]}},{"type":"Feature","properties":{"id":"6984-1","seccion":"6984","ubicacion_numero":1,"domicilio":"CALLE ALZATE, SIN NÚMERO, BARRIO LA CONCHITA, CHALCO DE DÍAZ COVARRUBIAS, CHALCO, MÉXICO, CÓDIGO POSTAL 56600","ubicacion":"ESCUELA PRIMARIA SOR JUANA INÉS DE LA CRUZ","referencia":"CASI ESQUINA CALLE SANTA CRUZ","tipo_domicilio":"ESCUELA","numero_casillas":1,"ubicaciones_seccion":1},"geometry":{"type":"Point","coordinates":[-98.90031499999999,19.254283]}},{"type":"Feature","properties":{"id":"6985-1","seccion":"6985","ubicacion_numero":1,"domicilio":"CALLE PORTAL DEL CIELO, SIN NÚMERO, FRACCIONAMIENTO PORTAL CHALCO, CHALCO DE DÍAZ COVARRUBIAS, CHALCO, ESTADO DE MÉXICO, CÓDIGO POSTAL 56600","ubicacion":"OFICINA DE DESARROLLO SOCIAL","referencia":"CASI ESQUINA CALLE CEIBA","tipo_domicilio":"OFICINA PÚBLICA","numero_casillas":1,"ubicaciones_seccion":1},"geometry":{"type":"Point","coordinates":[-98.898443,19.250167]}},{"type":"Feature","properties":{"id":"6986-1","seccion":"6986","ubicacion_numero":1,"domicilio":"CALLE JOSÉ MA. MORELOS, SIN NÚMERO, FRACCIONAMIENTO PORTAL CHALCO, CHALCO DE DÍAZ COVARRUBIAS, ESTADO DE MÉXICO, CÓDIGO POSTAL 56600","ubicacion":"ESCUELA PRIMARIA CARLOS CHÁVEZ","referencia":"CASI ESQUINA CALLE PORTAL DEL AGUA","tipo_domicilio":"ESCUELA","numero_casillas":1,"ubicaciones_seccion":1},"geometry":{"type":"Point","coordinates":[-98.90074600000001,19.248122]}},{"type":"Feature","properties":{"id":"6987-1","seccion":"6987","ubicacion_numero":1,"domicilio":"CALLE PORTAL DEL SOL, SIN NÚMERO, FRACCIONAMIENTO PORTAL CHALCO, CHALCO DE DÍAZ COVARRUBIAS, CHALCO, ESTADO DE MÉXICO, CÓDGO POSTAL 56600","ubicacion":"ESCUELA PRIMARIA JOSÉ MUÑOZ GOTA","referencia":"ESQUINA CARRETERA CHALCO MIXQUIC","tipo_domicilio":"ESCUELA","numero_casillas":1,"ubicaciones_seccion":1},"geometry":{"type":"Point","coordinates":[-98.904922,19.246744]}},{"type":"Feature","properties":{"id":"6988-1","seccion":"6988","ubicacion_numero":1,"domicilio":"CARRETERA CHALCO MIXQUIC, MANZANA 38, FRACCIONAMIENTO VILLAS CHALCO, CHALCO DE DÍAZ COVARRUBIAS, CHALCO, ESTADO DE MÉXICO, CÓDIGO POSTAL 56600","ubicacion":"ESCUELA SECUNDARIA TÉCNICA Y BACHILLERATO TECNOLÓGICO VILLA DE LOS NIÑOS","referencia":"ENTRE CALLE PORTAL DEL SOL Y CALLE SIN NOMBRE","tipo_domicilio":"ESCUELA","numero_casillas":1,"ubicaciones_seccion":1},"geometry":{"type":"Point","coordinates":[-98.90658900000001,19.244278]}},{"type":"Feature","properties":{"id":"6989-1","seccion":"6989","ubicacion_numero":1,"domicilio":"CALLE PORTAL DEL SOL, SIN NÚMERO, FRACCIONAMIENTO PORTAL DE CHALCO, CHALCO DE DÍAZ COVARRUBIAS, CHALCO, ESTADO DE MÉXICO, CÓDIGO POSTAL 56600","ubicacion":"ESCUELA SECUNDARIA OFICIAL NÚMERO 856 DR PABLO GONZÁLEZ CASANOVA","referencia":"ESQUINA CERRADA LOTE 14","tipo_domicilio":"ESCUELA","numero_casillas":1,"ubicaciones_seccion":1},"geometry":{"type":"Point","coordinates":[-98.901856,19.244617]}},{"type":"Feature","properties":{"id":"6990-1","seccion":"6990","ubicacion_numero":1,"domicilio":"CALLE PASEO DE LA COMPASIÓN, SIN NÚMERO, FRACCIONAMIENTO PASEOS CHALCO, CHALCO DE DÍAZ COVARRUBIAS, CHALCO, ESTADO DE MÉXICO","ubicacion":"ESCUELA PRIMARIA RICARDO FLORES MAGÓN","referencia":"ENTRE AVENIDA DE LA ESPERANZA Y AVENIDA DE LA CARIDAD","tipo_domicilio":"ESCUELA","numero_casillas":1,"ubicaciones_seccion":1},"geometry":{"type":"Point","coordinates":[-98.89392,19.240991]}},{"type":"Feature","properties":{"id":"6991-1","seccion":"6991","ubicacion_numero":1,"domicilio":"CALLE PASEO DE LA RECONCILIACIÓN, SIN NÚMERO, FRACCIONAMIENTO PASEOS CHALCO, CHALCO DE DÍAZ COVARRUBIAS, CHALCO, ESTADO DE MÉXICO, CÓDIGO POSTAL, 56600","ubicacion":"JARDÍN DE NIÑOS HANS CHRISTIAN ANDERSEN","referencia":"ENTRE AVENIDA DE LA FE SUR Y AVENIDA DE LA FE Y AVENIDA DE LA ESPERANZA","tipo_domicilio":"ESCUELA","numero_casillas":1,"ubicaciones_seccion":1},"geometry":{"type":"Point","coordinates":[-98.89596300000001,19.240646]}},{"type":"Feature","properties":{"id":"6992-1","seccion":"6992","ubicacion_numero":1,"domicilio":"CALLE LAGUNAS DE MONTEBELLO, SIN NÚMERO, FRACCIONAMIENTO LOS HÉROES CHALCO III, SAN MARTÍN CUAUTLALPAN, CHALCO, ESTADO DE MÉXICO, CÓDIGO POSTAL 56644","ubicacion":"ESCUELA PRIMARIA RICARDO FLORES MAGÓN","referencia":"ESQUINA CALLE LAGO DE CHALCO","tipo_domicilio":"ESCUELA","numero_casillas":1,"ubicaciones_seccion":1},"geometry":{"type":"Point","coordinates":[-98.854675,19.282186]}},{"type":"Feature","properties":{"id":"6993-1","seccion":"6993","ubicacion_numero":1,"domicilio":"CALLE LAGO DE TEXCOCO, SIN NÚMERO, FRACCIONAMIENTO LOS HÉROES CHALCO III, SAN MARTÍN CUAUTLALPAN, CHALCO, ESTADO DE MÉXICO, CÓDIGO POSTAL 56644","ubicacion":"ESCUELA PRIMARIA HÉROES DE LA LIBERTAD","referencia":"ESQUINA CALLE LAGO DE CHALCO","tipo_domicilio":"ESCUELA","numero_casillas":1,"ubicaciones_seccion":1},"geometry":{"type":"Point","coordinates":[-98.84948399999999,19.277932]}},{"type":"Feature","properties":{"id":"6994-1","seccion":"6994","ubicacion_numero":1,"domicilio":"CIRCUITO PLAZA MAYOR, SIN NÚMERO, SAN MARTÍN CUAUTLALPAN, CHALCO, ESTADO DE MÉXICO, CÓDIGO POSTAL 56644","ubicacion":"ESCUELA PRIMARIA NIÑOS HÉROES","referencia":"","tipo_domicilio":"ESCUELA","numero_casillas":1,"ubicaciones_seccion":1},"geometry":{"type":"Point","coordinates":[-98.85411900000001,19.273921]}},{"type":"Feature","properties":{"id":"6995-1","seccion":"6995","ubicacion_numero":1,"domicilio":"SIN NÚMERO, FRACCIONAMIENTO PUEBLO NUEVO, SAN MARTÍN CUAUTLALPAN, CHALCO, ESTADO DE MÉXICO","ubicacion":"ESCUELA BACHILLERATO TECNOLÓGICO NÚMERO 6, CALLE DE LA CANDELARIA","referencia":"ESQUINA CALLE DE LA CARRETA","tipo_domicilio":"ESCUELA","numero_casillas":1,"ubicaciones_seccion":1},"geometry":{"type":"Point","coordinates":[-98.847955,19.275349]}},{"type":"Feature","properties":{"id":"6996-1","seccion":"6996","ubicacion_numero":1,"domicilio":"CALLE REVOLUCIÓN, SIN NUMERO, SAN MARTÍN CUAUTLALPAN, CHALCO, ESTADO DE MÉXICO, CÓDIGO POSTAL 56644","ubicacion":"DELEGACIÓN MUNICIPAL","referencia":"ESQUINA CALLE IGNACIO ZARAGOZA","tipo_domicilio":"OFICINA PÚBLICA","numero_casillas":1,"ubicaciones_seccion":1},"geometry":{"type":"Point","coordinates":[-98.83348300000002,19.27326]}},{"type":"Feature","properties":{"id":"6997-1","seccion":"6997","ubicacion_numero":1,"domicilio":"CALLE PLAZA MAYOR, SIN NÚMERO, FRACCIONAMIENTO PUEBLO NUEVO, SAN MARTÍN CUAUTLALPAN, CHALCO, ESTADO DE MÉXICO, CÓDIGO POSTAL, 56644","ubicacion":"PLAZA MAYOR","referencia":"ENTRE CARRETERA A SAN MARTÍN Y CALLE DEL ROSARIO","tipo_domicilio":"LUGAR PÚBLICO","numero_casillas":1,"ubicaciones_seccion":1},"geometry":{"type":"Point","coordinates":[-98.852064,19.26883]}},{"type":"Feature","properties":{"id":"6998-1","seccion":"6998","ubicacion_numero":1,"domicilio":"CALLE DURANGO, SIN NÚMERO, FRACCIONAMIENTO VILLAS DE SAN MARTÍN, SAN MARTÍN CUAUTLALPAN, CHALCO, ESTADO DE MÉXICO, CODIGO POSTAL 56644","ubicacion":"CANCHA DE BASQUETBOL","referencia":"ESQUINA CALLE ZACATECAS","tipo_domicilio":"LUGAR PÚBLICO","numero_casillas":1,"ubicaciones_seccion":1},"geometry":{"type":"Point","coordinates":[-98.83736700000001,19.266837]}},{"type":"Feature","properties":{"id":"6999-1","seccion":"6999","ubicacion_numero":1,"domicilio":"CALLE SONORA, SIN NÚMERO,FRACCIONAMIENTO VILLAS DE SAN MARTÍN, SAN MARTÍN CUAUTLALPAN, CHALCO, ESTADO DE MÉXICO, CODIGO POSTAL 56644","ubicacion":"JARDÍN DE NIÑOS ESTEFANIA CASTAÑEDA","referencia":"ESQUINA CALLE SINALOA","tipo_domicilio":"ESCUELA","numero_casillas":1,"ubicaciones_seccion":1},"geometry":{"type":"Point","coordinates":[-98.83620000000002,19.268749]}},{"type":"Feature","properties":{"id":"7201-1","seccion":"7201","ubicacion_numero":1,"domicilio":"","ubicacion":"","referencia":"","tipo_domicilio":"","numero_casillas":null,"ubicaciones_seccion":1},"geometry":{"type":"Point","coordinates":[-98.90468499969599,19.28864500219072]}},{"type":"Feature","properties":{"id":"7202-1","seccion":"7202","ubicacion_numero":1,"domicilio":"","ubicacion":"","referencia":"","tipo_domicilio":"","numero_casillas":null,"ubicaciones_seccion":1},"geometry":{"type":"Point","coordinates":[-98.89840465503406,19.2890807268726]}},{"type":"Feature","properties":{"id":"7203-1","seccion":"7203","ubicacion_numero":1,"domicilio":"","ubicacion":"","referencia":"","tipo_domicilio":"","numero_casillas":null,"ubicaciones_seccion":1},"geometry":{"type":"Point","coordinates":[-98.90125711777992,19.2871913730036]}},{"type":"Feature","properties":{"id":"7204-1","seccion":"7204","ubicacion_numero":1,"domicilio":"","ubicacion":"","referencia":"","tipo_domicilio":"","numero_casillas":null,"ubicaciones_seccion":1},"geometry":{"type":"Point","coordinates":[-98.90964195880777,19.28702209620378]}},{"type":"Feature","properties":{"id":"7205-1","seccion":"7205","ubicacion_numero":1,"domicilio":"","ubicacion":"","referencia":"","tipo_domicilio":"","numero_casillas":null,"ubicaciones_seccion":1},"geometry":{"type":"Point","coordinates":[-98.89674143930384,19.28558221606313]}},{"type":"Feature","properties":{"id":"7206-1","seccion":"7206","ubicacion_numero":1,"domicilio":"","ubicacion":"","referencia":"","tipo_domicilio":"","numero_casillas":null,"ubicaciones_seccion":1},"geometry":{"type":"Point","coordinates":[-98.90363956159419,19.27800855633686]}},{"type":"Feature","properties":{"id":"7207-1","seccion":"7207","ubicacion_numero":1,"domicilio":"","ubicacion":"","referencia":"","tipo_domicilio":"","numero_casillas":null,"ubicaciones_seccion":1},"geometry":{"type":"Point","coordinates":[-98.90413980256584,19.27824129214007]}},{"type":"Feature","properties":{"id":"7208-1","seccion":"7208","ubicacion_numero":1,"domicilio":"CALLE NOCHEBUENA, SIN NÚMERO, COLONIA NUEVA SAN MIGUEL, CHALCO DE DÍAZ COVARRUBIAS, CÓDIGO POSTAL 56604, CHALCO, MÉXICO","ubicacion":"ESCUELA SECUNDARIA OFICIAL NÚMERO 0647 JUAN RULFO","referencia":"ENTRE CALLE RETAMA Y CALLE VIOLETA","tipo_domicilio":"ESCUELA","numero_casillas":3,"ubicaciones_seccion":1},"geometry":{"type":"Point","coordinates":[-98.898635,19.275161]}},{"type":"Feature","properties":{"id":"7209-1","seccion":"7209","ubicacion_numero":1,"domicilio":"","ubicacion":"","referencia":"","tipo_domicilio":"","numero_casillas":null,"ubicaciones_seccion":1},"geometry":{"type":"Point","coordinates":[-98.89721519121079,19.27816903546411]}},{"type":"Feature","properties":{"id":"7210-1","seccion":"7210","ubicacion_numero":1,"domicilio":"","ubicacion":"","referencia":"","tipo_domicilio":"","numero_casillas":null,"ubicaciones_seccion":1},"geometry":{"type":"Point","coordinates":[-98.90451190760018,19.27570640840301]}},{"type":"Feature","properties":{"id":"7211-1","seccion":"7211","ubicacion_numero":1,"domicilio":"","ubicacion":"","referencia":"","tipo_domicilio":"","numero_casillas":null,"ubicaciones_seccion":1},"geometry":{"type":"Point","coordinates":[-98.91120287606202,19.280140149684]}},{"type":"Feature","properties":{"id":"7212-1","seccion":"7212","ubicacion_numero":1,"domicilio":"","ubicacion":"","referencia":"","tipo_domicilio":"","numero_casillas":null,"ubicaciones_seccion":1},"geometry":{"type":"Point","coordinates":[-98.90908650856665,19.27706937553225]}},{"type":"Feature","properties":{"id":"7213-1","seccion":"7213","ubicacion_numero":1,"domicilio":"","ubicacion":"","referencia":"","tipo_domicilio":"","numero_casillas":null,"ubicaciones_seccion":1},"geometry":{"type":"Point","coordinates":[-98.91101143844222,19.27554719673692]}},{"type":"Feature","properties":{"id":"7214-1","seccion":"7214","ubicacion_numero":1,"domicilio":"","ubicacion":"","referencia":"","tipo_domicilio":"","numero_casillas":null,"ubicaciones_seccion":1},"geometry":{"type":"Point","coordinates":[-98.9105566426122,19.2749485095917]}},{"type":"Feature","properties":{"id":"7215-1","seccion":"7215","ubicacion_numero":1,"domicilio":"","ubicacion":"","referencia":"","tipo_domicilio":"","numero_casillas":null,"ubicaciones_seccion":1},"geometry":{"type":"Point","coordinates":[-98.91195252571585,19.27222309035379]}},{"type":"Feature","properties":{"id":"7216-1","seccion":"7216","ubicacion_numero":1,"domicilio":"","ubicacion":"","referencia":"","tipo_domicilio":"","numero_casillas":null,"ubicaciones_seccion":1},"geometry":{"type":"Point","coordinates":[-98.85011406566788,19.24529654792916]}},{"type":"Feature","properties":{"id":"7217-1","seccion":"7217","ubicacion_numero":1,"domicilio":"","ubicacion":"","referencia":"","tipo_domicilio":"","numero_casillas":null,"ubicaciones_seccion":1},"geometry":{"type":"Point","coordinates":[-98.84343290212796,19.25085167651028]}},{"type":"Feature","properties":{"id":"7218-1","seccion":"7218","ubicacion_numero":1,"domicilio":"","ubicacion":"","referencia":"","tipo_domicilio":"","numero_casillas":null,"ubicaciones_seccion":1},"geometry":{"type":"Point","coordinates":[-98.84424638817059,19.24697527416059]}},{"type":"Feature","properties":{"id":"7219-1","seccion":"7219","ubicacion_numero":1,"domicilio":"CALLE FRANCISCO VILLA, NÚMERO 1, LA CANDELARIA TLAPALA, CÓDIGO POSTAL 56641, CHALCO, MÉXICO","ubicacion":"ESCUELA PRIMARIA FEDERALIZADA VICENTE GUERRERO","referencia":"ENTRE CALLE MANUEL HERNÁNDEZ Y PROLONGACIÓN GUERRERO","tipo_domicilio":"ESCUELA","numero_casillas":3,"ubicaciones_seccion":1},"geometry":{"type":"Point","coordinates":[-98.84600500000002,19.241811]}},{"type":"Feature","properties":{"id":"7220-1","seccion":"7220","ubicacion_numero":1,"domicilio":"","ubicacion":"","referencia":"","tipo_domicilio":"","numero_casillas":null,"ubicaciones_seccion":1},"geometry":{"type":"Point","coordinates":[-98.84047414032479,19.23892808452955]}},{"type":"Feature","properties":{"id":"7221-1","seccion":"7221","ubicacion_numero":1,"domicilio":"","ubicacion":"","referencia":"","tipo_domicilio":"","numero_casillas":null,"ubicaciones_seccion":1},"geometry":{"type":"Point","coordinates":[-98.84772620395701,19.24010756589256]}},{"type":"Feature","properties":{"id":"7222-1","seccion":"7222","ubicacion_numero":1,"domicilio":"","ubicacion":"","referencia":"","tipo_domicilio":"","numero_casillas":null,"ubicaciones_seccion":1},"geometry":{"type":"Point","coordinates":[-98.8461765928104,19.23731569340623]}},{"type":"Feature","properties":{"id":"7429-1","seccion":"7429","ubicacion_numero":1,"domicilio":"","ubicacion":"","referencia":"","tipo_domicilio":"","numero_casillas":null,"ubicaciones_seccion":1},"geometry":{"type":"Point","coordinates":[-98.89684898529589,19.28216038053609]}},{"type":"Feature","properties":{"id":"7430-1","seccion":"7430","ubicacion_numero":1,"domicilio":"CALLE EDUCACIÓN, NÚMERO 10, COLONIA NUEVA SAN ISIDRO, CHALCO DE DÍAZ COVARRUBIAS, CÓDIGO POSTAL 56605, CHALCO, MÉXICO","ubicacion":"ESCUELA SECUNDARIA OFICIAL NÚMERO 696 JUANA DE ASBAJE","referencia":"ESQUINA CON AVENIDA SAN ÁNGEL","tipo_domicilio":"ESCUELA","numero_casillas":2,"ubicaciones_seccion":1},"geometry":{"type":"Point","coordinates":[-98.900082,19.280666]}},{"type":"Feature","properties":{"id":"7431-1","seccion":"7431","ubicacion_numero":1,"domicilio":"","ubicacion":"","referencia":"","tipo_domicilio":"","numero_casillas":null,"ubicaciones_seccion":1},"geometry":{"type":"Point","coordinates":[-98.90576002728224,19.25730114303278]}},{"type":"Feature","properties":{"id":"7433-1","seccion":"7433","ubicacion_numero":1,"domicilio":"CALLE SAN SEBASTIÁN, SIN NÚMERO, BARRIO SAN SEBASTIÁN, CHALCO DE DÍAZ COVARRUBIAS, CÓDIGO POSTAL 56600, CHALCO, MÉXICO","ubicacion":"ESCUELA PRIMARIA DE TIEMPO COMPLETO OCTAVIO PAZ","referencia":"CASI ESQUINA AVENIDA LAS TORRES","tipo_domicilio":"ESCUELA","numero_casillas":3,"ubicaciones_seccion":1},"geometry":{"type":"Point","coordinates":[-98.904574,19.253139]}},{"type":"Feature","properties":{"id":"7437-1","seccion":"7437","ubicacion_numero":1,"domicilio":"","ubicacion":"","referencia":"","tipo_domicilio":"","numero_casillas":null,"ubicaciones_seccion":1},"geometry":{"type":"Point","coordinates":[-98.85837240108924,19.25748027658418]}},{"type":"Feature","properties":{"id":"7438-1","seccion":"7438","ubicacion_numero":1,"domicilio":"AVENIDA JOSÉ MARÍA MORELOS Y PAVÓN SUR, NÚMERO 2, SAN GREGORIO CUAUTZINGO, CÓDIGO POSTAL 56640, CHALCO, MÉXICO","ubicacion":"DELEGACIÓN MUNICIPAL","referencia":"ESQUINA CON CALLEJÓN GARCÍA","tipo_domicilio":"OFICINA PÚBLICA","numero_casillas":2,"ubicaciones_seccion":1},"geometry":{"type":"Point","coordinates":[-98.858127,19.257185]}}]}
