{
"type": "FeatureCollection",
"name": "distrito",
"crs": { "type": "name", "properties": { "name": "urn:ogc:def:crs:OGC:1.3:CRS84" } },
"features": [
{ "type": "Feature", "properties": { "entidad": 15, "distrito": 33, "tipo": 8 }, "geometry": { "type": "Polygon", "coordinates": [ [ [ -98.722276421927077, 19.324736704784012 ], [ -98.721312843592955, 19.32468119163822 ], [ -98.720639865646291, 19.32279063353004 ], [ -98.719013921034488, 19.322724789244575 ], [ -98.718660575537058, 19.322209565039675 ], [ -98.717467321092045, 19.322360728853607 ], [ -98.717320121357034, 19.321822137574536 ], [ -98.717862546041133, 19.321477208364353 ], [ -98.717982012807752, 19.320869272318447 ], [ -98.721128938552155, 19.31933826481929 ], [ -98.72113650686137, 19.318581794673911 ], [ -98.715402822036097, 19.316069955624616 ], [ -98.708875822374267, 19.311931124650236 ], [ -98.707395860631493, 19.310282784471909 ], [ -98.706424875435673, 19.306867725606121 ], [ -98.704977616672664, 19.305609018793536 ], [ -98.70608949150288, 19.301706722379752 ], [ -98.705293762694197, 19.298756728639034 ], [ -98.705042517780925, 19.289671249526322 ], [ -98.705608613682287, 19.287606880065329 ], [ -98.703495972856246, 19.288573718329054 ], [ -98.700903150117824, 19.287890330420748 ], [ -98.700602790452749, 19.285563351212417 ], [ -98.702439917678177, 19.284275685839102 ], [ -98.708561444529295, 19.277270825633991 ], [ -98.708415753944436, 19.27555154272952 ], [ -98.704374714800167, 19.270697212654859 ], [ -98.698007618751006, 19.264906758380665 ], [ -98.697653568763414, 19.261616742498003 ], [ -98.694949638933721, 19.259350880467903 ], [ -98.693450447834891, 19.2601551623607 ], [ -98.692397250828932, 19.25956757014653 ], [ -98.69227081137916, 19.259129431208823 ], [ -98.694124733724962, 19.257646224686638 ], [ -98.694127314548041, 19.256740361960382 ], [ -98.693829852944248, 19.25563707919758 ], [ -98.712467935856196, 19.25859860684012 ], [ -98.712957839434097, 19.256761053652436 ], [ -98.712778035654665, 19.254375314714299 ], [ -98.712205279215596, 19.252304672573683 ], [ -98.723939487202273, 19.245171979997043 ], [ -98.733315071361218, 19.24763832923518 ], [ -98.736285652975852, 19.246754706189662 ], [ -98.749594620774616, 19.2449239143229 ], [ -98.754192763838347, 19.243800656006638 ], [ -98.770431766995998, 19.236663679648721 ], [ -98.790886642526345, 19.232756733567271 ], [ -98.795537629489516, 19.232689473738287 ], [ -98.796899674433305, 19.233155280850937 ], [ -98.80229616855145, 19.232363954304656 ], [ -98.805460404140263, 19.234276366557793 ], [ -98.808268336936578, 19.23420201486044 ], [ -98.80775316743518, 19.232999233140788 ], [ -98.805412304620532, 19.231853212239713 ], [ -98.806195766694742, 19.226383506378536 ], [ -98.806133326794864, 19.225404117888697 ], [ -98.806097624073658, 19.223084805231561 ], [ -98.805929844215385, 19.222698109010132 ], [ -98.805800749700509, 19.222238440773467 ], [ -98.806260091928053, 19.221740415306229 ], [ -98.806764553943808, 19.22129195727895 ], [ -98.807196098910097, 19.220783995841263 ], [ -98.807714867906157, 19.219982299980224 ], [ -98.808024572659534, 19.21964258016007 ], [ -98.80819530697147, 19.219263097521342 ], [ -98.80823727186862, 19.219038645972603 ], [ -98.80815465584574, 19.218355168824601 ], [ -98.807860573893592, 19.217215876144998 ], [ -98.807662829286031, 19.216915240451481 ], [ -98.813271470156181, 19.211140256011269 ], [ -98.814542438282103, 19.209460792537154 ], [ -98.814584704926773, 19.20927720067743 ], [ -98.819190471384502, 19.210591576775553 ], [ -98.826149709459969, 19.214339455756409 ], [ -98.825367276418618, 19.218343497577187 ], [ -98.828405616477454, 19.218849254538828 ], [ -98.831366827139945, 19.219221273025088 ], [ -98.83236391672952, 19.220443619896667 ], [ -98.834760443386671, 19.223990064339446 ], [ -98.834831124325575, 19.224259714664889 ], [ -98.834947319719475, 19.224473988642263 ], [ -98.835469018566741, 19.224923022377222 ], [ -98.839724105649708, 19.228228767170894 ], [ -98.840471158846768, 19.228851144238988 ], [ -98.850866781082303, 19.236605683404651 ], [ -98.855951561381758, 19.240295585794897 ], [ -98.857153042354724, 19.241047302905258 ], [ -98.857705403138141, 19.24132627143933 ], [ -98.857813504438766, 19.241460520523155 ], [ -98.863130198127081, 19.244538246145975 ], [ -98.869736052529348, 19.246263078448308 ], [ -98.874957986519703, 19.246915793162273 ], [ -98.873649740604264, 19.238187036603449 ], [ -98.87349099763081, 19.236115859450273 ], [ -98.873192284820632, 19.233260507532147 ], [ -98.875494858268794, 19.233521183801397 ], [ -98.876209198235301, 19.232527475063527 ], [ -98.88759937417403, 19.234988857815608 ], [ -98.891685045987757, 19.236608840331893 ], [ -98.892237920339269, 19.235733050116675 ], [ -98.896573214763052, 19.226191824299502 ], [ -98.897652158972164, 19.218721431608298 ], [ -98.897141384006446, 19.207594505325726 ], [ -98.890456580097208, 19.203623063484013 ], [ -98.891681660188695, 19.20040868597658 ], [ -98.894473131097158, 19.195067273348442 ], [ -98.895491504384964, 19.19436875449945 ], [ -98.896278824396688, 19.193941092628009 ], [ -98.897037109154709, 19.193237494612362 ], [ -98.897974249372623, 19.193100105185653 ], [ -98.898805498134664, 19.193304000906576 ], [ -98.899397689809902, 19.193375904039566 ], [ -98.899541274043415, 19.192989627244852 ], [ -98.899379049425832, 19.191334672193996 ], [ -98.899641956761073, 19.190561468040531 ], [ -98.899737148653216, 19.190037024571769 ], [ -98.89977198102136, 19.189314989154433 ], [ -98.899690320200577, 19.187822482468409 ], [ -98.900332966461065, 19.184158012102884 ], [ -98.900219466034287, 19.183409911485583 ], [ -98.899723719751677, 19.18198749049709 ], [ -98.899630100316159, 19.181400449597458 ], [ -98.899981532665507, 19.180491913610407 ], [ -98.900331705271228, 19.180087764234425 ], [ -98.900786011618763, 19.179869662793031 ], [ -98.901403673957304, 19.179896385309437 ], [ -98.902316284155987, 19.179769805091706 ], [ -98.903075568428164, 19.179478926855953 ], [ -98.903301430336825, 19.179235498416812 ], [ -98.903638031015788, 19.178814926589244 ], [ -98.903933089850725, 19.178227403529618 ], [ -98.904201691841266, 19.177465159469502 ], [ -98.904661331376644, 19.176823706595897 ], [ -98.905133825668642, 19.176376682071005 ], [ -98.906071244178662, 19.174393326955943 ], [ -98.906113089107677, 19.17372935794376 ], [ -98.906011356568342, 19.172993105221828 ], [ -98.905424434479158, 19.171809152832335 ], [ -98.905503780314461, 19.171100286344036 ], [ -98.906380023432035, 19.169596972967636 ], [ -98.906538465961063, 19.169107849647883 ], [ -98.906420327407915, 19.167614510496975 ], [ -98.906368310837479, 19.165916322867766 ], [ -98.907011893536264, 19.164234123377497 ], [ -98.908608124065935, 19.162662983680242 ], [ -98.922143991399096, 19.168436485483593 ], [ -98.922376819191456, 19.168275800247901 ], [ -98.923033137999923, 19.16599756902772 ], [ -98.923731707999977, 19.163887600027707 ], [ -98.924434476999963, 19.162145923027648 ], [ -98.92531147699998, 19.160173831027645 ], [ -98.924632233741733, 19.15827961991792 ], [ -98.927378852193911, 19.158044166862357 ], [ -98.927975737999986, 19.158080662027587 ], [ -98.928955614999936, 19.157984708027659 ], [ -98.929936, 19.157808031027649 ], [ -98.930454384999948, 19.157863185027612 ], [ -98.932322907999946, 19.157502200027622 ], [ -98.933427137999942, 19.157819077027678 ], [ -98.934780461999978, 19.157431862027632 ], [ -98.935670061999971, 19.157382538027612 ], [ -98.936240291999965, 19.157607415027577 ], [ -98.936391799999953, 19.157556231027609 ], [ -98.937547253696948, 19.157804665399912 ], [ -98.949338471052329, 19.149664188327858 ], [ -98.954021719207134, 19.148493671137583 ], [ -98.95686149538875, 19.148660360838825 ], [ -98.961024953949021, 19.160409265941439 ], [ -98.953169899110478, 19.172951782202052 ], [ -98.96660522917702, 19.183352177828443 ], [ -98.96691453201565, 19.196777987910366 ], [ -98.968712027991614, 19.202645748087566 ], [ -98.968618052933323, 19.202817364501414 ], [ -98.968556542830413, 19.203270463677267 ], [ -98.968242170840028, 19.203399133843959 ], [ -98.967851882636523, 19.203726883822771 ], [ -98.967763687514022, 19.203724433753258 ], [ -98.967783095564542, 19.204427132132299 ], [ -98.967653141394436, 19.204628782452332 ], [ -98.967721974323354, 19.205388988047599 ], [ -98.967928870654347, 19.205638053236694 ], [ -98.967238942704682, 19.206201522896936 ], [ -98.966714139932193, 19.208888318293138 ], [ -98.967855705296557, 19.209419346534379 ], [ -98.967586516681038, 19.210205705751534 ], [ -98.967041367830049, 19.211103422677823 ], [ -98.966365206872098, 19.211686551316642 ], [ -98.96550280376907, 19.212171341657921 ], [ -98.964585184113034, 19.212767524814275 ], [ -98.963964281247144, 19.21295745198325 ], [ -98.963536568973311, 19.21299013431797 ], [ -98.962763661495572, 19.214228568779198 ], [ -98.962515289471867, 19.214339925691775 ], [ -98.959831710333617, 19.2145556188479 ], [ -98.958079308071433, 19.21524333172561 ], [ -98.956954842241373, 19.215243071052317 ], [ -98.955341329280643, 19.21471916317077 ], [ -98.953646219208025, 19.215375444754713 ], [ -98.953238070706632, 19.215380012446531 ], [ -98.950983970676987, 19.216017905366133 ], [ -98.948351281160981, 19.214972664958445 ], [ -98.947210742899841, 19.217988106419746 ], [ -98.94565669217836, 19.224759786211376 ], [ -98.945211392936613, 19.225173323924132 ], [ -98.944698385975869, 19.225476528014255 ], [ -98.934506900894831, 19.234898396245505 ], [ -98.932984940517287, 19.236246871065546 ], [ -98.927406266477718, 19.241438098497166 ], [ -98.925625257255845, 19.243426895287907 ], [ -98.923184685887108, 19.245689966820301 ], [ -98.922825658264173, 19.247465370212133 ], [ -98.923925303079059, 19.247360470794458 ], [ -98.924383654792223, 19.247437489837267 ], [ -98.936095888370588, 19.250919229795599 ], [ -98.935314878864332, 19.256357067171013 ], [ -98.93244864847064, 19.259776912942502 ], [ -98.929108758284769, 19.26279248919392 ], [ -98.92790893781914, 19.266208297874098 ], [ -98.927649972026117, 19.266184004681179 ], [ -98.927400368426788, 19.267333360967303 ], [ -98.920739154553004, 19.27313363167476 ], [ -98.918501293167083, 19.275119576674637 ], [ -98.917870267374681, 19.275748732954671 ], [ -98.911517369742882, 19.281322362762474 ], [ -98.916391035455703, 19.287869518680267 ], [ -98.916010088277531, 19.288044684060541 ], [ -98.916000938544371, 19.287946570718436 ], [ -98.913554556760445, 19.288816097218742 ], [ -98.912918499007617, 19.288991039546218 ], [ -98.912280821021525, 19.289112412140103 ], [ -98.911493016521874, 19.289075461615582 ], [ -98.911137528523582, 19.289290451226993 ], [ -98.91349400185527, 19.290153843045328 ], [ -98.913143781521782, 19.29095619604475 ], [ -98.911949229569544, 19.290394213924049 ], [ -98.908555768001975, 19.289737595520105 ], [ -98.907583887269368, 19.289600308515261 ], [ -98.90470087102824, 19.288997904325523 ], [ -98.901490800740689, 19.289242599619378 ], [ -98.898910161889191, 19.289528694445689 ], [ -98.898531331577161, 19.289532786779137 ], [ -98.89761137431762, 19.289391872445865 ], [ -98.896190137015921, 19.289547071403344 ], [ -98.894107064243343, 19.290190301616722 ], [ -98.892323488485602, 19.290081283631142 ], [ -98.890550673312134, 19.289864400560575 ], [ -98.887700379401039, 19.289751037020856 ], [ -98.883480165340828, 19.289107928471807 ], [ -98.880327043620696, 19.2884606110531 ], [ -98.879729812713364, 19.288299511266541 ], [ -98.879627808406113, 19.293046756869821 ], [ -98.878967326244918, 19.293910499251442 ], [ -98.877782120846419, 19.297263550518093 ], [ -98.876545893326849, 19.300052860845426 ], [ -98.87463009346196, 19.304046258123257 ], [ -98.862012962438399, 19.300444300551394 ], [ -98.861898806094857, 19.300495591952334 ], [ -98.861680850117807, 19.300998943841929 ], [ -98.861243268786424, 19.302454166494449 ], [ -98.860732503145655, 19.30309962965536 ], [ -98.860746072852251, 19.303152239531865 ], [ -98.860031135305931, 19.304151203046963 ], [ -98.859734572246282, 19.304751246634229 ], [ -98.859645983584358, 19.304835220061367 ], [ -98.859524263710171, 19.304845631621415 ], [ -98.853032000757551, 19.304393885803059 ], [ -98.853200523425159, 19.302901692841669 ], [ -98.853341138685238, 19.30108241272174 ], [ -98.854018758300512, 19.300827282210932 ], [ -98.857585943948777, 19.299694929864646 ], [ -98.855831586843479, 19.29878482092284 ], [ -98.854300064516195, 19.298354183618454 ], [ -98.854102988608773, 19.297987127640276 ], [ -98.853358497589639, 19.297883902912524 ], [ -98.851435284998473, 19.29853856993477 ], [ -98.850932561551431, 19.298621679319258 ], [ -98.850015294090909, 19.2985493403426 ], [ -98.849694057894467, 19.298463883653948 ], [ -98.849626842864126, 19.297343959282205 ], [ -98.850619694966838, 19.297201598558949 ], [ -98.850972701269725, 19.295925237366582 ], [ -98.853008861401236, 19.295401910191988 ], [ -98.852785453284895, 19.294691858140602 ], [ -98.852713389743172, 19.294227273067467 ], [ -98.85276816430212, 19.293762790243026 ], [ -98.852500611943967, 19.293664199872488 ], [ -98.852619815999248, 19.293448306295218 ], [ -98.852619370084554, 19.293196048341599 ], [ -98.852918410396185, 19.292907511315324 ], [ -98.853248035955247, 19.292804060619304 ], [ -98.854025537673522, 19.292380790196589 ], [ -98.854174779650194, 19.291894216847375 ], [ -98.856249556999586, 19.289871273814995 ], [ -98.854868321402549, 19.289375856962351 ], [ -98.852297870020919, 19.284398185847852 ], [ -98.851982131958522, 19.284725510024469 ], [ -98.85171764091001, 19.284670346350865 ], [ -98.85141993381805, 19.28478000288683 ], [ -98.850361058402285, 19.28556412720204 ], [ -98.850063177319555, 19.285862178586409 ], [ -98.849302287830128, 19.286222647198755 ], [ -98.848243957218074, 19.286394468568041 ], [ -98.847797511649603, 19.28642549669992 ], [ -98.847185915746095, 19.28625228870753 ], [ -98.846689839355932, 19.28631467214478 ], [ -98.846248806338167, 19.286619368739718 ], [ -98.845944649996042, 19.286763453649581 ], [ -98.845336561614459, 19.286811053559411 ], [ -98.844994695691696, 19.286642365814028 ], [ -98.844589594891985, 19.286365367790673 ], [ -98.843715671910758, 19.286220281125026 ], [ -98.842765607647422, 19.286219465502196 ], [ -98.842119471743175, 19.286315136078084 ], [ -98.841220111907745, 19.286278271350024 ], [ -98.840700603725438, 19.286422160214538 ], [ -98.840409110516305, 19.286566246925133 ], [ -98.838673397284794, 19.286829347758282 ], [ -98.838483313002683, 19.286901350348938 ], [ -98.838356472013572, 19.287069636109965 ], [ -98.838217045868035, 19.287153711660892 ], [ -98.837596262699861, 19.2872253313862 ], [ -98.836937107045983, 19.287669795883033 ], [ -98.836823157949695, 19.287609552016583 ], [ -98.83618987234378, 19.287512757447384 ], [ -98.835987082648359, 19.287620831703435 ], [ -98.835699771988857, 19.287677233682473 ], [ -98.834239084622524, 19.28966203361907 ], [ -98.832477393390604, 19.291935490018446 ], [ -98.831219184388473, 19.294198403502204 ], [ -98.830667313646146, 19.296317587058763 ], [ -98.837842352406881, 19.30086371754318 ], [ -98.838518017425883, 19.301195927324866 ], [ -98.839532036375857, 19.301164730023874 ], [ -98.842270174493436, 19.3007985298586 ], [ -98.842808912276439, 19.300593136418332 ], [ -98.84513920609642, 19.299233808088207 ], [ -98.845908736142334, 19.299028601012594 ], [ -98.847122969587275, 19.299618640864278 ], [ -98.847316295105372, 19.299853259186087 ], [ -98.84833209969814, 19.30057210907102 ], [ -98.848125190956196, 19.301018146005255 ], [ -98.84775465681966, 19.301301788518977 ], [ -98.847704618558751, 19.301511329751836 ], [ -98.847786459323856, 19.302651970459674 ], [ -98.837877606110524, 19.306410855224073 ], [ -98.835932730662975, 19.307219859583281 ], [ -98.833708072180116, 19.311030955964597 ], [ -98.832486622573754, 19.31259658121083 ], [ -98.831877563084774, 19.312529547564978 ], [ -98.831014693553726, 19.312118903839707 ], [ -98.827027272150872, 19.317196998579835 ], [ -98.821874379754178, 19.317266314729075 ], [ -98.816140647546121, 19.318541235487494 ], [ -98.812956374412252, 19.316955089321191 ], [ -98.815511564531334, 19.315687755333673 ], [ -98.816812344328156, 19.313070470800113 ], [ -98.815370064451045, 19.312964635997734 ], [ -98.814762718792011, 19.313036456808668 ], [ -98.807288234809548, 19.312817741495117 ], [ -98.809680774904905, 19.31018656763014 ], [ -98.806618092669567, 19.308599911482418 ], [ -98.804979310152774, 19.304911800954965 ], [ -98.806895560108416, 19.30296849892839 ], [ -98.814494675695784, 19.30348136999535 ], [ -98.815701690030096, 19.302778433220077 ], [ -98.81622124843021, 19.301222961934386 ], [ -98.814470081395072, 19.296856064074881 ], [ -98.815974437945144, 19.296445010320738 ], [ -98.816287532276746, 19.291617152235769 ], [ -98.814938894061967, 19.291664461043791 ], [ -98.815098300752439, 19.291335568652201 ], [ -98.814287355626632, 19.288482523095077 ], [ -98.815402642834798, 19.286943413887091 ], [ -98.81508272865959, 19.28569447850726 ], [ -98.813140915647992, 19.285389475109582 ], [ -98.810986122666421, 19.286564031517376 ], [ -98.807720654740152, 19.287202281406493 ], [ -98.804770189161431, 19.287316825367299 ], [ -98.802201376658104, 19.287799906208829 ], [ -98.794843288576288, 19.292574939213853 ], [ -98.793066278961291, 19.295743218598204 ], [ -98.789608536997378, 19.297608689773245 ], [ -98.786126312032295, 19.297364158951716 ], [ -98.787529453269357, 19.296214521113605 ], [ -98.789637517918322, 19.29548746164954 ], [ -98.790638856083987, 19.293891522048128 ], [ -98.788546517522676, 19.292176338821076 ], [ -98.786087304349124, 19.292388113806261 ], [ -98.786967383730513, 19.290803892956632 ], [ -98.780428792151497, 19.294972321088554 ], [ -98.775625119641049, 19.295704787756065 ], [ -98.773110037464861, 19.29584432141904 ], [ -98.769513063608912, 19.298202775433705 ], [ -98.761549390639502, 19.300753476503189 ], [ -98.757455087798135, 19.302527631155392 ], [ -98.755734362024924, 19.303081497953123 ], [ -98.754082092018095, 19.301639950936089 ], [ -98.749417318744136, 19.303254859014423 ], [ -98.748873839068267, 19.300240417230942 ], [ -98.747584285327505, 19.299062061391115 ], [ -98.744770898948303, 19.299342830705484 ], [ -98.743477950068907, 19.300916237673885 ], [ -98.743628619575745, 19.302509647265172 ], [ -98.745323971350217, 19.305395670846547 ], [ -98.744872603289437, 19.310203411209887 ], [ -98.743409939148833, 19.312290316654714 ], [ -98.739524671923377, 19.312813947881494 ], [ -98.736894198157501, 19.315754275497042 ], [ -98.732955144660664, 19.315360591645668 ], [ -98.727123182717037, 19.315807031599867 ], [ -98.726008676740307, 19.317024809854455 ], [ -98.722276421927077, 19.324736704784012 ] ] ] } }
]
}
